,country,facName,facCode,district,province,facType,ownership,areaType,accessRoad,latitude,longitude,openYear,popUnder1,popUnder5,V15,dpt3_mean,dpt3_lower,dpt3_upper,dpt1_mean,dpt1_lower,dpt1_upper
1,Benin,CS ADJARRA,Ben_fac_01,Akpro,DDS Oueme,"Health Centre, Centre de Sante",Goverment,Urban,,6.5345,2.6683,1956,870,"3,918",NA,0.844879746,0.768795729,0.898909569,0.935159087,0.896937072,0.960348547
2,Benin,CS AVRANKOU,Ben_fac_02,Akpro,DDS Oueme,"Health Centre, Centre de Sante",Goverment,Semi-Urban,,6.5559,2.6512,1965,736,"3,311",NA,0.820560277,0.755278468,0.875556707,0.923683941,0.884365022,0.95076102
3,Benin,CS DANTO,Ben_fac_03,Akpro,DDS Oueme,"Health Centre, Centre de Sante",Goverment,Semi-Urban,,6.5207,2.6218,2003,435,"1,957",NA,0.81381911,0.741997302,0.869362175,0.936536252,0.903877795,0.9602198
4,Benin,CS HONVIER,Ben_fac_04,Akpro,DDS Oueme,"Health Centre, Centre de Sante",Goverment,Rural,,6.5185,2.6523,1984,623,"1,037",NA,0.834150255,0.757864892,0.886889756,0.936226904,0.902698219,0.960065663
5,Benin,CS KOUTI,Ben_fac_05,Akpro,DDS Oueme,"Health Centre, Centre de Sante",Goverment,Rural,,6.6035,2.6468,1982,469,"2,113",NA,0.813059866,0.746679664,0.868343353,0.917873979,0.882295132,0.946938097
6,Benin,CS OUANHO,Ben_fac_06,Akpro,DDS Oueme,"Health Centre, Centre de Sante",Goverment,Rural,,6.517,2.598,2005,467,"2,100",NA,0.81381911,0.741997302,0.869362175,0.936536252,0.903877795,0.9602198
7,Benin,CS SADO,Ben_fac_07,Akpro,DDS Oueme,"Health Centre, Centre de Sante",Goverment,Rural,,6.558,2.6542,2007,286,"1,287",NA,0.820560277,0.755278468,0.875556707,0.923683941,0.884365022,0.95076102
8,Benin,CS AHOUANSORI,Ben_fac_08,Cotonou 1&4,DDS Littoral,"Health Centre, Centre de Sante",Goverment,Urban,,6.385,2.4333,NA,"1,518","6,832",NA,NA,NA,NA,NA,NA,NA
9,Benin,CS AIDJEDO,Ben_fac_09,Cotonou 1&4,DDS Littoral,"Health Centre, Centre de Sante",Goverment,Urban,,6.3504,2.4254,NA,"3,808","17,137",NA,0.830757618,0.765301287,0.885503113,0.965853512,0.946299434,0.980093718
10,Benin,CS COTONOU1,Ben_fac_10,Cotonou 1&4,DDS Littoral,"Health Centre, Centre de Sante",Goverment,Urban,,6.3782,2.4238,NA,"1,401","6,305",NA,NA,NA,NA,NA,NA,NA
11,Benin,CS FAYCAL,Ben_fac_11,Cotonou 1&4,DDS Littoral,"Health Centre, Centre de Sante",NGO_Religion,Urban,,6.3553,2.4196,1979,"1,760","7,922",NA,0.830757618,0.765301287,0.885503113,0.965853512,0.946299434,0.980093718
12,Benin,CS PLACODJI,Ben_fac_12,Cotonou 1&4,DDS Littoral,"Health Centre, Centre de Sante",Goverment,Urban,,6.3523,2.4418,NA,359,"1,616",NA,0.830757618,0.765301287,0.885503113,0.965853512,0.946299434,0.980093718
13,Benin,CS AYELAWEDJE,Ben_fac_13,Cotonou 2&3,DDS Littoral,"Health Centre, Centre de Sante",Goverment,Urban,,6.2241,2.2659,NA,"2,234","10,054",NA,NA,NA,NA,NA,NA,NA
14,Benin,CS GANKPODO,Ben_fac_14,Cotonou 2&3,DDS Littoral,"Health Centre, Centre de Sante",Goverment,Urban,,6.3643,2.5526,2008,"1,579","7,107",NA,NA,NA,NA,NA,NA,NA
15,Benin,CS SAINTE MARIE DES ANGES,Ben_fac_15,Cotonou 2&3,DDS Littoral,"Health Centre, Centre de Sante",NGO_Religion,Urban,,6.3583,2.4747,1986,252,"1,134",NA,NA,NA,NA,NA,NA,NA
16,Benin,DISPENSAIRE AGBATO,Ben_fac_16,Cotonou 2&3,DDS Littoral,"Clinic, Dispensaire_maternite isole",Goverment,Urban,,6.3886,2.4383,1973,968,"4,354",NA,NA,NA,NA,NA,NA,NA
17,Benin,MATERNITE MISSESSIN,Ben_fac_17,Cotonou 2&3,DDS Littoral,"Clinic, Dispensaire_maternite isole",Goverment,Urban,,6.3667,2.447,1979,"2,090","9,405",NA,0.830757618,0.765301287,0.885503113,0.965853512,0.946299434,0.980093718
18,Benin,CS ASSANTE,Ben_fac_18,Dassa Glazoue,DDS Zou Collines,"Health Centre, Centre de Sante",Goverment,Rural,,8.1492,2.2486,1994,408,"1,836",NA,0.843253851,0.757609844,0.905293047,0.918411672,0.867187738,0.952672005
19,Benin,CS DASSA,Ben_fac_19,Dassa Glazoue,DDS Zou Collines,"Health Centre, Centre de Sante",Goverment,Urban,,7.7789,2.1998,1997,"1,248","5,561",NA,0.8721627,0.789813519,0.929261208,0.939865172,0.896118343,0.968761921
20,Benin,CS GBAFFO,Ben_fac_20,Dassa Glazoue,DDS Zou Collines,"Health Centre, Centre de Sante",Goverment,Rural,,7.7544,2.1848,1952,192,881,NA,0.8721627,0.789813519,0.929261208,0.939865172,0.896118343,0.968761921
21,Benin,CS GLAZOUE,Ben_fac_21,Dassa Glazoue,DDS Zou Collines,"Health Centre, Centre de Sante",Goverment,Urban,,7.9724,2.2411,NA,687,"3,078",NA,0.870882034,0.79509002,0.923267782,0.934744298,0.895282567,0.964495778
22,Benin,CS KERE,Ben_fac_22,Dassa Glazoue,DDS Zou Collines,"Health Centre, Centre de Sante",Goverment,Rural,,7.7572,2.1872,1978,420,"1,890",NA,0.8721627,0.789813519,0.929261208,0.939865172,0.896118343,0.968761921
23,Benin,CS TRE,Ben_fac_23,Dassa Glazoue,DDS Zou Collines,"Health Centre, Centre de Sante",Goverment,Rural,,7.7483,2.1854,1982,263,"1,182",NA,0.855778396,0.775680482,0.917241037,0.924158335,0.875076294,0.959184885
24,Benin,CS GBEGOUROU,Ben_fac_24,Parakou NDali,DDS Borgou,"Health Centre, Centre de Sante",Goverment,Rural,,9.4425,2.7407,2000,309,"1,542",NA,0.620391369,0.472644478,0.754066944,0.736749649,0.624836743,0.832675159
25,Benin,CS PARAKOU,Ben_fac_25,Parakou NDali,DDS Borgou,"Health Centre, Centre de Sante",Goverment,Urban,,9.341,2.6297,NA,"1,438","7,191",NA,0.661688924,0.541889608,0.770916164,0.78209579,0.695384324,0.858313859
26,Benin,CS SIRAROU,Ben_fac_26,Parakou NDali,DDS Borgou,"Health Centre, Centre de Sante",Goverment,Rural,,9.6025,2.6367,1978,860,"4,302",NA,0.511529684,0.340574294,0.688058794,0.660173893,0.52754432,0.787332237
27,Benin,TEME,Ben_fac_27,Parakou NDali,DDS Borgou,"Clinic, Dispensaire_maternite isole",Goverment,Rural,,9.8962,2.4708,2007,182,912,NA,0.691693187,0.531925917,0.830008447,0.777455747,0.659818649,0.883168757
28,Benin,CS AVLAGBODJI,Ben_fac_28,Porto Novo,DDS Oueme,"Health Centre, Centre de Sante",Goverment,Rural,,6.518,2.532,1982,347,"1,558",NA,0.752821088,0.662679434,0.82490474,0.897343338,0.852388442,0.930791974
29,Benin,CS DJEFFA,Ben_fac_29,Porto Novo,DDS Oueme,"Health Centre, Centre de Sante",Goverment,Rural,,6.4965,2.6426,1998,375,"1,687",NA,0.829312921,0.759881854,0.885440886,0.941737354,0.911373198,0.965397775
30,Benin,CS DJEREGBE,Ben_fac_30,Porto Novo,DDS Oueme,"Health Centre, Centre de Sante",Goverment,Rural,,6.4254,2.6248,1980,564,"2,538",NA,0.79876554,0.721895456,0.859433591,0.919225872,0.882993519,0.947547615
31,Benin,CS EL FATHEH,Ben_fac_31,Porto Novo,DDS Oueme,"Other, Autre (Preciser)",NGO_Religion,Urban,,6.4906,2.5127,1998,607,"2,733",NA,0.753159761,0.675170422,0.817436635,0.897847235,0.857542038,0.932216167
32,Benin,CS HOUEDOMEY,Ben_fac_32,Porto Novo,DDS Oueme,"Health Centre, Centre de Sante",Goverment,Rural,,6.4803,2.5453,1952,444,"1,546",NA,0.772158146,0.686929226,0.839063406,0.890916526,0.847825944,0.926339567
33,Benin,CS KRAKE,Ben_fac_33,Porto Novo,DDS Oueme,"Health Centre, Centre de Sante",Goverment,Rural,,6.3855,2.6781,NA,693,"3,117",NA,0.807911158,0.698598862,0.887581646,0.922668934,0.87708056,0.959252656
34,Benin,CS TOKPOTA,Ben_fac_34,Porto Novo,DDS Oueme,"Health Centre, Centre de Sante",Goverment,Urban,,6.4968,2.6034,2007,"1,081","4,861",NA,0.8083148,0.733867526,0.866519928,0.925881684,0.89044416,0.952444673
35,Benin,CS ZEBOU,Ben_fac_35,Porto Novo,DDS Oueme,"Health Centre, Centre de Sante",Goverment,Urban,,6.5,2.5874,1986,"1,108","4,986",NA,0.81381911,0.741997302,0.869362175,0.936536252,0.903877795,0.9602198
36,Benin,CS AGOUA,Ben_fac_36,Savalou Bante,DDS Zou Collines,"Health Centre, Centre de Sante",Goverment,Rural,,8.2939,1.959,1988,336,"1,550",NA,0.836449146,0.749888539,0.900733232,0.91550523,0.863833845,0.953061163
37,Benin,CS DJALLOUKOU,Ben_fac_37,Savalou Bante,DDS Zou Collines,"Health Centre, Centre de Sante",Goverment,Rural,,7.7401,1.7737,1980,268,"1,271",NA,0.699225545,0.564857423,0.815228224,0.844271362,0.754545629,0.910567224
38,Benin,CS GOUKA,Ben_fac_38,Savalou Bante,DDS Zou Collines,"Health Centre, Centre de Sante",Goverment,Rural,,8.1351,1.9653,NA,"1,229","5,532",NA,0.815038979,0.709232688,0.895299792,0.908698082,0.852731645,0.951529145
39,Benin,CS PIRA,Ben_fac_39,Savalou Bante,DDS Zou Collines,"Health Centre, Centre de Sante",Goverment,Rural,,8.4914,1.7364,1950,633,"3,057",NA,0.889315724,0.819335103,0.942612112,0.948493361,0.907893717,0.975072801
40,Benin,CS SAVALOU,Ben_fac_40,Savalou Bante,DDS Zou Collines,"Health Centre, Centre de Sante",Goverment,Semi-Urban,,7.9273,1.98,NA,"1,065","5,058",NA,0.806422889,0.69883132,0.889756918,0.908890903,0.846514523,0.952211022
41,Benin,CS ALAFIAROU,Ben_fac_41,Tchaourou,DDS Borgou,"Health Centre, Centre de Sante",Goverment,Rural,,8.8806,2.6083,1989,146,840,NA,0.685092866,0.54396373,0.804138064,0.79024601,0.683616102,0.874000907
42,Benin,CS KABO,Ben_fac_42,Tchaourou,DDS Borgou,"Health Centre, Centre de Sante",Goverment,Rural,,9.1861,3.0531,2008,284,"1,632",NA,0.740262985,0.604012251,0.850001216,0.821120381,0.717992544,0.899355948
43,Benin,CS KIKA,Ben_fac_43,Tchaourou,DDS Borgou,"Health Centre, Centre de Sante",Goverment,Rural,,9.283,2.783,1973,361,"2,072",NA,0.627580464,0.477993935,0.755171239,0.738853455,0.63115716,0.82981956
44,Benin,CS SANSON,Ben_fac_44,Tchaourou,DDS Borgou,"Clinic, Dispensaire_maternite isole",NGO_Religion,Rural,,9.2754,2.4252,1977,505,"2,900",NA,0.553215206,0.417698026,0.681953192,0.681110561,0.575706542,0.775357366
45,Benin,CS TCHAOUROU,Ben_fac_45,Tchaourou,DDS Borgou,"Health Centre, Centre de Sante",Goverment,Urban,,8.8797,2.5988,NA,976,"5,604",NA,0.685092866,0.54396373,0.804138064,0.79024601,0.683616102,0.874000907
46,Benin,CS TCHATCHOU,Ben_fac_46,Tchaourou,DDS Borgou,"Health Centre, Centre de Sante",Goverment,Rural,,9.127,2.555,1998,"1,242","7,128",NA,0.605066478,0.450660199,0.742607534,0.722853363,0.60377121,0.827322602
47,Ghana,Adomfe,Gha_fac_01,Asante Akim South,Ashanti,CHPS,Government,Rural,Graveled,6.6562,-1.0853,2005,355,"1,466",NA,0.887445807,0.789121151,0.946076751,0.963886976,0.926101029,0.984663129
48,Ghana,Banka,Gha_fac_02,Asante Akim South,Ashanti,Health Center,Government,Rural,Not tarred or gravel,6.2983,-1.215,1990,560,"2,309",NA,0.836981118,0.703539252,0.922942996,0.952199221,0.905213416,0.981908381
49,Ghana,Dwendwenase,Gha_fac_03,Asante Akim South,Ashanti,Health Center,Government,Rural,Not tarred or gravel,6.4123,-1.1994,NA,310,"1,279",NA,0.844522357,0.717615724,0.927897632,0.953172386,0.908636332,0.980968952
50,Ghana,Juaso,Gha_fac_04,Asante Akim South,Ashanti,District Hospital,Government,Urban,Graveled,6.5922,-1.121,NA,859,"3,545",NA,0.877571702,0.784137011,0.934440017,0.961130679,0.924191654,0.983460784
51,Ghana,Kyempo,Gha_fac_05,Asante Akim South,Ashanti,CHPS,Government,Rural,Not tarred or gravel,6.4354,-1.1295,NA,243,"1,004",NA,0.85282892,0.738842249,0.925577939,0.955451488,0.911915362,0.980006397
52,Ghana,Nnadieso,Gha_fac_06,Asante Akim South,Ashanti,Health Center,Government,Urban,Not tarred or gravel,6.5985,-0.9221,NA,653,"2,694",NA,0.869974196,0.771637142,0.935901403,0.959964454,0.921666622,0.983541965
53,Ghana,Ofoase,Gha_fac_07,Asante Akim South,Ashanti,Health Center,Government,Urban,Graveled,6.3921,-1.285,1983,417,"1,722",NA,0.85783416,0.748608053,0.928182364,0.956620216,0.916655779,0.982487857
54,Ghana,Anglican,Gha_fac_08,Atwima Mponua,Ashanti,Health Center,CHAG_NGOs,Urban,Not tarred or gravel,6.4971,-2.3966,1999,671,"2,557",NA,0.837880909,0.730599761,0.910140693,0.961058855,0.929158986,0.982973695
55,Ghana,Ashyiresu,Gha_fac_09,Atwima Mponua,Ashanti,CHPS,Government,Rural,Not tarred or gravel,6.4701,-2.4167,2010,671,"2,557",NA,0.839654386,0.742281735,0.909574807,0.962879419,0.92923522,0.984068751
56,Ghana,Bayerebon,Gha_fac_10,Atwima Mponua,Ashanti,Health Center,Government,Rural,Not tarred or gravel,6.3921,-2.1813,1993,499,"1,904",NA,0.825788498,0.716580629,0.910011351,0.95474112,0.915011704,0.980806053
57,Ghana,Gyereso,Gha_fac_11,Atwima Mponua,Ashanti,Health Center,Government,Urban,Not tarred or gravel,6.4701,-2.4167,1999,671,"2,557",NA,0.839654386,0.742281735,0.909574807,0.962879419,0.92923522,0.984068751
58,Ghana,Nyinahin,Gha_fac_12,Atwima Mponua,Ashanti,District Hospital,Government,Urban,Tarred,6.6012,-2.11,1965,"1,337","5,096",NA,0.815849543,0.663937986,0.920868278,0.950652838,0.899379194,0.981985331
59,Ghana,Saint_peters,Gha_fac_13,Atwima Mponua,Ashanti,Mission Hospital,CHAG_NGOs,Rural,Graveled,6.5351,-2.0422,1983,553,"2,109",NA,0.819727778,0.676035941,0.918991685,0.947319269,0.888927042,0.97991991
60,Ghana,Bimbagu,Gha_fac_14,Bunkpurugu Yunyoo,Northern Region,CHPS,Government,Rural,Not tarred or gravel,10.5833,-0.1,2008,421,"2,406",NA,0.885737121,0.799496949,0.941903293,0.969714284,0.939852118,0.987692773
61,Ghana,Bunkpurugu,Gha_fac_15,Bunkpurugu Yunyoo,Northern Region,Health Center,Government,Rural,Not tarred or gravel,10.5167,0.0998,1976,501,"2,889",NA,0.943698525,0.902129471,0.970297277,0.985266745,0.970884264,0.993611157
62,Ghana,Kambagu,Gha_fac_16,Bunkpurugu Yunyoo,Northern Region,CHPS,Government,Rural,Not tarred or gravel,10.5167,0.0998,2007,543,630,NA,0.943698525,0.902129471,0.970297277,0.985266745,0.970884264,0.993611157
63,Ghana,Nakpanduri,Gha_fac_17,Bunkpurugu Yunyoo,Northern Region,Mission Hospital,CHAG_NGOs,Rural,Graveled,10.6346,-0.18,1950,486,"1,918",NA,0.897133648,0.830257535,0.945901871,0.97082746,0.944272459,0.987112343
64,Ghana,Nasua,Gha_fac_18,Bunkpurugu Yunyoo,Northern Region,Health Center,Government,Urban,Not tarred or gravel,10.5167,-0.1667,1987,640,"3,202",NA,0.858679593,0.774871349,0.922665954,0.959011972,0.925696731,0.981690764
65,Ghana,Yunyoo,Gha_fac_19,Bunkpurugu Yunyoo,Northern Region,Health Center,Government,Rural,Not tarred or gravel,10.4844,0.0086,1994,495,"1,038",NA,0.902485669,0.834114671,0.946020007,0.970721602,0.946431458,0.986574113
66,Ghana,Afiaman,Gha_fac_20,Ga West,Greater Accra,Clinic,Government,Rural,Not tarred or gravel,5.6913,-0.2833,2008,355,"1,135",NA,0.904189944,0.853119135,0.943638742,0.961236596,0.936949134,0.978345454
67,Ghana,Akramaman,Gha_fac_21,Ga West,Greater Accra,CHPS,Government,Rural,Not tarred or gravel,5.7012,-0.3676,2010,118,,NA,0.864567101,0.791580141,0.919077754,0.945320964,0.910480678,0.96823281
68,Ghana,Ga_west_dh_rch,Gha_fac_22,Ga West,Greater Accra,District Hospital,Government,Urban,Graveled,5.7021,-0.2996,2010,"3,838",,NA,0.879428566,0.810302079,0.930480421,0.952133775,0.920264184,0.974894166
69,Ghana,Kojo_ashong,Gha_fac_23,Ga West,Greater Accra,Clinic,Government,Rural,Not tarred or gravel,5.7188,-0.4002,2008,860,"2,760",NA,0.838647783,0.752261996,0.909065068,0.934046924,0.892910957,0.963720262
70,Ghana,Mayera,Gha_fac_24,Ga West,Greater Accra,Clinic,Government,Rural,Not tarred or gravel,5.7207,-0.2702,2004,81,273,NA,0.859190524,0.779996693,0.914493084,0.941473544,0.902696192,0.966518581
71,Ghana,Nsakina,Gha_fac_25,Ga West,Greater Accra,CHPS,Government,Rural,Not tarred or gravel,5.65,-0.3167,2002,184,,NA,0.905333519,0.853945613,0.944330812,0.962509811,0.937397242,0.980076313
72,Ghana,Oduman,Gha_fac_26,Ga West,Greater Accra,Health Center,Government,Rural,Not tarred or gravel,5.6417,-0.3304,1996,462,"1,483",NA,0.905333519,0.853945613,0.944330812,0.962509811,0.937397242,0.980076313
73,Ghana,Pokuase,Gha_fac_27,Ga West,Greater Accra,CHPS,Government,Urban,Not tarred or gravel,5.6913,-0.2833,2004,219,"5,720",NA,0.904189944,0.853119135,0.943638742,0.961236596,0.936949134,0.978345454
74,Ghana,Biu,Gha_fac_28,Kassena Nankana,Upper East,Clinic,Government,Rural,Not tarred or gravel,10.7667,-1.1167,1979,126,137,NA,0.895407438,0.811970532,0.951136827,0.961406767,0.924349546,0.983323932
75,Ghana,Doba,Gha_fac_29,Kassena Nankana,Upper East,CHPS,Government,Rural,Not tarred or gravel,10.9513,-1.0332,NA,226,226,NA,0.930777848,0.884093285,0.961877644,0.972561181,0.949338734,0.987068832
76,Ghana,Gia,Gha_fac_30,Kassena Nankana,Upper East,CHPS,Government,Rural,Graveled,10.9167,-1.1333,2010,102,,NA,0.925792754,0.861975312,0.964759648,0.969511807,0.940249324,0.987143159
77,Ghana,Gongnia,Gha_fac_31,Kassena Nankana,Upper East,CHPS,Government,Rural,Not tarred or gravel,10.8719,-1.0861,2004,129,129,NA,0.913183928,0.850054085,0.95388931,0.965582728,0.93535769,0.984645724
78,Ghana,Nayagnia,Gha_fac_32,Kassena Nankana,Upper East,CHPS,Government,Rural,Graveled,10.9,-1.0333,NA,95,211,NA,0.923460126,0.872592568,0.957056344,0.968929827,0.943668842,0.984989166
79,Ghana,Vunania,Gha_fac_33,Kassena Nankana,Upper East,CHPS,Government,Urban,Not tarred or gravel,10.8405,-1.071,NA,177,,NA,0.918721795,0.866918564,0.956750691,0.968553483,0.943640113,0.985937119
80,Ghana,War_memorial,Gha_fac_34,Kassena Nankana,Upper East,District Hospital,Government,Urban,Tarred,10.886,-1.0906,NA,654,,NA,0.92364198,0.871048689,0.959457397,0.972243905,0.948094487,0.987041593
81,Ghana,Wuru,Gha_fac_35,Kassena Nankana,Upper East,CHPS,Government,Rural,Not tarred or gravel,10.8864,-1.1165,1996,256,,NA,0.92364198,0.871048689,0.959457397,0.972243905,0.948094487,0.987041593
82,Ghana,Kolongo,Gha_fac_36,Kassena Nankana,Upper East,Clinic,Government,Rural,Not tarred or gravel,10.7306,-1.0789,2006,79,393,NA,0.884071767,0.800029516,0.942226231,0.957037091,0.919446051,0.980866194
83,Ghana,Navrongo,Gha_fac_37,Kassena Nankana,Upper East,Health Center,Government,Urban,Graveled,10.8858,-1.0903,NA,654,"3,272",NA,0.92364198,0.871048689,0.959457397,0.972243905,0.948094487,0.987041593
84,Ghana,Bamahu,Gha_fac_38,Wa Municipal,Upper West,Health Center,Government,Urban,Not tarred or gravel,10.0131,-2.4878,2006,406,"2,030",NA,0.935562253,0.884429812,0.967588842,0.965295732,0.934972405,0.983925283
85,Ghana,Boli,Gha_fac_39,Wa Municipal,Upper West,CHPS,Government,Rural,Graveled,9.9497,-2.3942,2008,98,587,NA,0.93399018,0.875666499,0.970357716,0.966062605,0.934257209,0.985584915
86,Ghana,Charingu,Gha_fac_40,Wa Municipal,Upper West,Health Center,Government,Rural,Not tarred or gravel,10.1005,-2.3705,NA,419,"2,093",NA,0.92813623,0.861989677,0.965984046,0.959854364,0.921681702,0.981867254
87,Ghana,Dondoli,Gha_fac_41,Wa Municipal,Upper West,CHPS,Government,Urban,Tarred,10.0718,-2.4922,2011,"1,101","1,075",NA,0.937596262,0.884030163,0.969841778,0.968471766,0.938654721,0.985604167
88,Ghana,Gbegru,Gha_fac_42,Wa Municipal,Upper West,CHPS,Government,Rural,Not tarred or gravel,10.0808,-2.5621,2009,18,97,NA,0.9171381,0.850737095,0.960365474,0.952067852,0.9089185,0.97799921
89,Ghana,Kambali,Gha_fac_43,Wa Municipal,Upper West,Health Center,Government,Urban,Graveled,10.0576,-2.516,2004,633,"3,166",NA,0.938778341,0.888094544,0.970221341,0.969505429,0.941717982,0.986283481
90,Ghana,Konta_north,Gha_fac_44,Wa Municipal,Upper West,Clinic,Government,Urban,Tarred,10.0509,-2.5042,2007,"2,666","1,332",NA,0.938778341,0.888094544,0.970221341,0.969505429,0.941717982,0.986283481
91,Ghana,Kperisi,Gha_fac_45,Wa Municipal,Upper West,Health Center,Government,Rural,Graveled,10.1198,-2.456,2001,211,896,NA,0.931655884,0.868500292,0.968674481,0.962209225,0.924980998,0.983770013
92,Ghana,Kumbiehi,Gha_fac_46,Wa Municipal,Upper West,CHPS,Government,Urban,Not tarred or gravel,10.067,-2.5003,2006,112,381,NA,0.938778341,0.888094544,0.970221341,0.969505429,0.941717982,0.986283481
93,Ghana,Nachanta,Gha_fac_47,Wa Municipal,Upper West,CHPS,Government,Rural,Graveled,10.067,-2.5003,2009,180,540,NA,0.938778341,0.888094544,0.970221341,0.969505429,0.941717982,0.986283481
94,Ghana,Piisi,Gha_fac_48,Wa Municipal,Upper West,CHPS,Government,Rural,Not tarred or gravel,9.962,-2.6833,2008,77,346,NA,0.938716531,0.879689872,0.973892212,0.966831565,0.934377074,0.98633188
95,Ghana,Wa_market,Gha_fac_49,Wa Municipal,Upper West,Clinic,Government,Urban,Tarred,10.063,-2.5056,2010,300,,NA,0.938778341,0.888094544,0.970221341,0.969505429,0.941717982,0.986283481
96,Ghana,Wa_urban,Gha_fac_50,Wa Municipal,Upper West,Clinic,Government,Urban,Not tarred or gravel,10.0604,-2.5003,NA,"2,547","11,461",NA,0.938778341,0.888094544,0.970221341,0.969505429,0.941717982,0.986283481
97,Uganda,Adjumani Hospital-facility,Uga_fac_01,Adjumani,West Nile,General Hospital,Government,Rural,Poor,3.3742,31.7928,1997,959,"4,572",NA,0.91310674,0.806198061,0.969924152,0.978566051,0.94711858,0.994345486
98,Uganda,Mungula HC IV-facility,Uga_fac_02,Adjumani,West Nile,Health Centre IV,Government,Rural,Poor,3.1144,31.4714,1983,288,"1,351",NA,0.848715186,0.690375924,0.941787243,0.96065712,0.911357343,0.987606943
99,Uganda,Pachara Health Centre II-facility,Uga_fac_03,Adjumani,West Nile,Health Centre II,Government,Rural,Poor,3.4255,31.776,1997,"1,724","2,562",NA,0.910343051,0.800312936,0.966868281,0.977765739,0.947502971,0.993687451
100,Uganda,Robidire Health Centre III-facility,Uga_fac_04,Adjumani,West Nile,Health Centre III,NGO_Religious,Rural,Poor,3.4404,31.7528,1995,196,922,NA,0.910343051,0.800312936,0.966868281,0.977765739,0.947502971,0.993687451
101,Uganda,Busabaga HC lll-facility,Uga_fac_05,Buikwe,Central 2,Health Centre III,Government,Rural,Poor,0.3716,32.9343,NA,"1,730","7,204",NA,0.834677875,0.699753404,0.921101153,0.934564769,0.873487353,0.971596181
102,Uganda,Kawolo Hospital-facility,Uga_fac_06,Buikwe,Central 2,General Hospital,Government,Semi-Urban,good,0.3679,32.9452,1967,"21,500","101,000",NA,0.834677875,0.699753404,0.921101153,0.934564769,0.873487353,0.971596181
103,Uganda,Lugazi Muslim HCT-facility,Uga_fac_07,Buikwe,Central 2,Health Centre II,NGO_Religious,Semi-Urban,good,0.3672,32.935,1992,142,667,NA,0.834677875,0.699753404,0.921101153,0.934564769,0.873487353,0.971596181
104,Uganda,Makindu HC lll-facility,Uga_fac_08,Buikwe,Central 2,Health Centre III,Government,Rural,Poor,0.9179,34.161,1994,302,"1,418",NA,0.768068612,0.620349407,0.875185549,0.947116017,0.898341775,0.977414429
105,Uganda,Bushenyi HC lV-facility,Uga_fac_09,Bushenyi,South West,Health Centre IV,Government,Peri-Urban,good,-0.54,30.1865,1950,645,"3,032",NA,0.826761365,0.6902619,0.924435794,0.911880732,0.83544153,0.965622485
106,Uganda,Buyanja HC ll-facility,Uga_fac_10,Bushenyi,South West,Health Centre II,Government,Rural,Poor,0.8082,31.052,1990,155,727,NA,0.690101087,0.493335664,0.837424278,0.916396618,0.840500593,0.962888002
107,Uganda,Nyarugoote HC ll-facility,Uga_fac_11,Bushenyi,South West,Health Centre II,Government,Rural,Fair,-0.5389,30.0905,2000,"1,810","8,504",NA,0.824463248,0.681790411,0.917357802,0.912458599,0.83370471,0.962999463
108,Uganda,Ryeishe HC ll-facility,Uga_fac_12,Bushenyi,South West,Health Centre II,Government,Rural,Fair,-0.5876,30.2561,2009,448,"2,104",NA,0.828618407,0.669041276,0.926825762,0.911934257,0.825952053,0.967019379
109,Uganda,Awach Health Centre IV-facility,Uga_fac_13,Gulu,Mid North,Health Centre IV,Government,Rural,Poor,2.9681,32.3993,1931,619,"2,908",NA,0.895537734,0.766063035,0.964843571,0.976650536,0.938829362,0.994117975
110,Uganda,Bar Dege HC III-facility,Uga_fac_14,Gulu,Mid North,Health Centre III,Government,Semi-Urban,good,2.7948,32.293,2003,"1,978","9,292",NA,0.891811132,0.777386546,0.959413946,0.979847968,0.950431943,0.994582772
111,Uganda,Lalogi Health Centre IV-facility,Uga_fac_15,Gulu,Mid North,Health Centre IV,Government,Rural,Extremely Poor,2.6336,32.5672,1988,989,"4,646",NA,0.832603157,0.672094762,0.935230434,0.96047622,0.910714328,0.987449348
112,Uganda,ST Mauritz Health Centre II-facility,Uga_fac_16,Gulu,Mid North,Health Centre II,NGO_Religious,Semi-Urban,Poor,2.7816,32.2948,1998,559,"2,625",NA,0.899220884,0.786876023,0.962474585,0.979973376,0.952079415,0.99430573
113,Uganda,Buhimba HC lll-facility,Uga_fac_17,Hoima,Mid West,Health Centre III,Government,Rural,good,1.3481,31.313,1994,702,"3,296",NA,0.749032497,0.552427351,0.88314724,0.933699429,0.864862919,0.974572957
114,Uganda,Butema HC lll-facility,Uga_fac_18,Hoima,Mid West,Health Centre III,Government,Rural,good,1.336,31.4197,2000,408,"1,917",NA,0.719677627,0.512242317,0.870030582,0.918710232,0.838778734,0.967576444
115,Uganda,Kikuube HC lV-facility,Uga_fac_19,Hoima,Mid West,Health Centre IV,Government,Urban,good,1.3402,31.2223,1994,"1,443","6,779",NA,0.776556253,0.563536763,0.906913042,0.941796601,0.877887309,0.980598211
116,Uganda,Kyakapeeya HC ll-facility,Uga_fac_20,Hoima,Mid West,Health Centre II,Government,Rural,good,1.4343,31.389,1999,374,"1,756",NA,0.708950341,0.470109582,0.881089449,0.929131329,0.853262365,0.975243986
117,Uganda,Busesach IV-facility,Uga_fac_21,Iganga,East Central,Health Centre IV,Government,Semi-Urban,good,0.6245,33.6175,1980,"1,527","7,171",NA,0.687515318,0.511751175,0.823736191,0.932390511,0.868422031,0.972921729
118,Uganda,Buzaaya HC II-facility,Uga_fac_22,Iganga,East Central,Health Centre II,Government,Rural,Poor,0.8866,33.4141,1991,219,"1,030",NA,0.699063361,0.500889122,0.847214937,0.928892732,0.861918271,0.969053984
119,Uganda,Iganga Prisons HC II-facility,Uga_fac_23,Iganga,East Central,Health Centre II,Government,Urban,good,0.6046,33.4816,1950,452,"2,121",NA,0.731269479,0.560228467,0.857143939,0.932898402,0.876644552,0.971201837
120,Uganda,Nawansinge HC II-facility,Uga_fac_24,Iganga,East Central,Health Centre II,Government,Rural,Poor,0.5936,33.48,2008,350,"1,645",NA,0.731269479,0.560228467,0.857143939,0.932898402,0.876644552,0.971201837
121,Uganda,Kiswa HC III-facility,Uga_fac_25,Kampala,Kampala,Health Centre III,Government,Urban,good,0.3212,32.6172,1980,"3,148","14,786",NA,0.826923192,0.700486004,0.917672396,0.940583944,0.888779163,0.974446058
122,Uganda,Komamboga HC III-facility,Uga_fac_26,Kampala,Kampala,Health Centre III,Government,Urban,good,0.3906,32.5842,1999,"3,249","15,262",NA,0.825611293,0.693487167,0.913117766,0.932337821,0.879075766,0.971937954
123,Uganda,Mbuya Reach Out-facility,Uga_fac_27,Kampala,Kampala,Health Centre II,NGO_Religious,Urban,good,0.3358,32.6259,2001,"5,444","25,573",NA,0.831267834,0.700651526,0.919828832,0.934818029,0.879353404,0.972002566
124,Uganda,St.Stephen's Dispensary Luzira HC III-facili,Uga_fac_28,Kampala,Kampala,Health Centre III,Private,Urban,Fair,0.3269,32.6557,2007,"1,699","7,979",NA,0.844503701,0.720707357,0.926901758,0.945424914,0.896374345,0.975726306
125,Uganda,Katete HC III-facility,Uga_fac_29,Kanungu,South West,Health Centre III,Government,Rural,Poor,-0.7825,29.7551,1955,294,"1,172",NA,0.867124677,0.764764071,0.939415872,0.929750681,0.871021271,0.971567392
126,Uganda,Kibimbiri HC III-facility,Uga_fac_30,Kanungu,South West,Health Centre II,NGO_Religious,Rural,Extremely Poor,-0.75,29.6999,1982,232,"1,091",NA,0.890790641,0.791264832,0.952323556,0.945638895,0.888737082,0.978450119
127,Uganda,Kihihi HC IV-facility,Uga_fac_31,Kanungu,South West,Health Centre IV,Government,Semi-Urban,Poor,-0.75,29.6999,1996,"3,465","16,278",NA,0.890790641,0.791264832,0.952323556,0.945638895,0.888737082,0.978450119
128,Uganda,Mishenyi HC II-facility,Uga_fac_32,Kanungu,South West,Health Centre II,Government,Rural,Poor,-0.7928,29.7035,2003,116,545,NA,0.897161722,0.812157035,0.955566049,0.946362972,0.898210227,0.977895737
129,Uganda,Anyagatire HC II-facility,Uga_fac_33,Lira,Mid North,Health Centre II,Government,Rural,Poor,2.2012,32.9347,2008,252,"1,185",NA,0.855431318,0.725184619,0.938493311,0.964428782,0.920291126,0.987453163
130,Uganda,Ngetta HC III-facility,Uga_fac_34,Lira,Mid North,Health Centre III,NGO_Religious,Semi-Urban,good,2.3118,32.9262,1958,"1,006","4,727",NA,0.851724207,0.716305673,0.93581301,0.96319443,0.918213785,0.987218142
131,Uganda,Ober HC III-facility,Uga_fac_35,Lira,Mid North,Health Centre III,Government,Rural,Extremely Poor,2.2539,32.8742,2009,"1,570","7,373",NA,0.849597692,0.697488725,0.940959036,0.964425921,0.920097053,0.988393068
132,Uganda,Onywako HC II-facility,Uga_fac_36,Lira,Mid North,Health Centre II,Government,Rural,Poor,2.1931,33.1062,1997,353,"1,656",NA,0.865593493,0.706561029,0.956702471,0.963380456,0.912454188,0.989338279
133,Uganda,DMOS Clinic HCII-facility,Uga_fac_37,Moroto,North East,Health Centre II,Government,Semi-Urban,Poor,2.5312,34.6603,NA,126,593,NA,0.732544541,0.558614671,0.866965532,0.920026541,0.851706326,0.966881096
134,Uganda,Kidepo Rupa HCIII-facility,Uga_fac_38,Moroto,North East,Health Centre III,NGO_Religious,Urban,Poor,2.532,34.6622,NA,896,"4,209",NA,0.732544541,0.558614671,0.866965532,0.920026541,0.851706326,0.966881096
135,Uganda,Kosiroi HCII-facility,Uga_fac_39,Moroto,North East,Health Centre II,Government,Rural,Extremely Poor,2.7717,34.7615,NA,148,696,NA,0.718883932,0.51828301,0.867345393,0.868930757,0.758205712,0.943971515
136,Uganda,Loputuk HCIII-facility,Uga_fac_40,Moroto,North East,Health Centre III,NGO_Religious,Rural,Extremely Poor,2.4982,34.6448,NA,829,"3,895",NA,0.714818776,0.533137262,0.857547522,0.89263612,0.804690003,0.95261848
137,Uganda,Nadunget HCIII-facility,Uga_fac_41,Moroto,North East,Health Centre III,Government,Rural,Poor,2.5127,34.583,NA,984,"4,622",NA,0.762457371,0.609857857,0.887809873,0.930257082,0.869004369,0.971997142
138,Uganda,Bbaale Gunda HC II-facility,Uga_fac_42,Rakai,Central 1,Health Centre II,Government,Rural,Poor,-0.7454,31.5907,2008,138,646,NA,0.683098912,0.465108812,0.851207674,0.853164554,0.73994714,0.938462913
139,Uganda,Bikira Maria HC III-facility,Uga_fac_43,Rakai,Central 1,Health Centre III,NGO_Religious,Semi-Urban,Poor,-0.6164,31.5669,1927,983,"4,616",NA,0.677289665,0.450978428,0.838318408,0.851902425,0.734967232,0.936543584
140,Uganda,Kakuuto HC IV-facility,Uga_fac_44,Rakai,Central 1,Health Centre IV,Government,Peri-Urban,Extremely Poor,-0.8594,31.4814,1940,"1,363","6,403",NA,0.71840018,0.536057413,0.860981464,0.866507053,0.764102221,0.941169798
141,Uganda,Rakai Hospital-facility,Uga_fac_45,Rakai,Central 1,General Hospital,Government,Peri-Urban,good,-0.7051,31.4023,1995,"21,438","100,710",NA,0.652086139,0.434413075,0.825935364,0.823041201,0.695832968,0.914467037
142,Uganda,Kidoko HC II-facility,Uga_fac_46,Tororo,Mid Eastern,Health Centre II,Government,Rural,Fair,0.8731,34.1328,NA,230,"1,080",NA,0.762521148,0.61816448,0.869787991,0.944634259,0.896284163,0.976162136
143,Uganda,Mifumi HC III-facility,Uga_fac_47,Tororo,Mid Eastern,Health Centre III,NGO_Religious,Rural,Poor,0.6978,34.038,NA,153,721,NA,0.796263218,0.656902969,0.898170888,0.94988966,0.903072715,0.979235888
144,Uganda,Mulanda HC IV-facility,Uga_fac_48,Tororo,Mid Eastern,Health Centre IV,Government,Rural,Poor,0.6927,34.0156,NA,698,"3,277",NA,0.796263218,0.656902969,0.898170888,0.94988966,0.903072715,0.979235888
145,Uganda,St Anthony Hospital-facility,Uga_fac_49,Tororo,Mid Eastern,General Hospital,NGO_Religious,Urban,good,0.6837,34.1796,NA,638,"2,995",NA,0.8162691,0.721699953,0.894001067,0.958087504,0.926530898,0.979658902
146,Zambia,Kankumba,Zam_fac_01,Chongwe,Lusaka,Rural Health Centre (RHC),Government,Rural,Fair,-15.2433,29.1582,NA,327,"1,309",NA,0.91823709,0.81448096,0.972133756,0.978660166,0.948852599,0.993823528
147,Zambia,Lukwipa,Zam_fac_02,Chongwe,Lusaka,Rural Health Centre (RHC),Government,Rural,Poor,-14.9869,29.8975,1982,280,"2,240",NA,0.897651851,0.770644188,0.9659096,0.979482889,0.947141171,0.994789243
148,Zambia,Mpashya,Zam_fac_03,Chongwe,Lusaka,Hospital Affiliated Health Centre (HAHC) Rural,NGO_Religious,Rural,good,-15.1086,29.7248,NA,631,"1,263",NA,0.92342025,0.810872674,0.977439582,0.983239651,0.956731141,0.995794833
149,Zambia,Mwalumina,Zam_fac_04,Chongwe,Lusaka,Rural Health Centre (RHC),Government,Rural,good,-15.4552,28.8576,NA,195,976,NA,0.912816226,0.816981375,0.967857063,0.980523169,0.955537319,0.993755579
150,Zambia,Kasavasa,Zam_fac_05,Kabwe,Central,Rural Health Centre (RHC),Government,Rural,Poor,-14.5266,28.4269,1972,255,"1,453",NA,0.932340443,0.874484658,0.967067838,0.979721665,0.959196329,0.992061675
151,Zambia,Makululu,Zam_fac_06,Kabwe,Central,Urban Health Centre (UHC),Government,Compound,Poor,-14.4455,28.4136,NA,924,"4,356",NA,0.939601779,0.889416397,0.971061826,0.983157694,0.966353714,0.993388355
152,Zambia,NGUNGU,Zam_fac_07,Kabwe,Central,Urban Health Centre (UHC),Government,Urban,Poor,-14.4095,28.4136,1969,504,"2,369",NA,0.941203475,0.882068455,0.972950935,0.983164787,0.964058399,0.99333483
153,Zambia,Pollen,Zam_fac_08,Kabwe,Central,Urban Health Centre (UHC),Government,Urban,good,-14.4412,28.4628,1997,290,"1,364",NA,0.93959552,0.887201905,0.97136867,0.98179841,0.961631119,0.993176103
154,Zambia,Chanyanya,Zam_fac_09,Kafue,Lusaka,Rural Health Centre (RHC),Government,Rural,Poor,-15.6683,28.0176,1993,480,"2,404",NA,0.938087761,0.881205022,0.973248959,0.981835544,0.961375833,0.992710233
155,Zambia,Chikupi,Zam_fac_10,Kafue,Lusaka,Hospital Affiliated Health Centre (HAHC) Rural,Government,Rural,Fair,-15.6375,28.0919,1994,412,"2,059",NA,0.941967428,0.891835809,0.974136293,0.984700203,0.968361974,0.993812859
156,Zambia,Chipapa,Zam_fac_11,Kafue,Lusaka,Rural Health Centre (RHC),Government,Rural,good,-15.6195,28.2757,1984,247,"1,235",NA,0.935388446,0.891314507,0.964912653,0.981893182,0.966011167,0.991748869
157,Zambia,Chisankane,Zam_fac_12,Kafue,Lusaka,Rural Health Centre (RHC),Government,Rural,Poor,-15.5563,28.3681,1988,410,"2,050",NA,0.929208398,0.874229252,0.964225769,0.980892539,0.962135911,0.99127996
158,Zambia,Estate,Zam_fac_13,Kafue,Lusaka,Urban Health Centre (UHC),Government,Peri-Urban,good,-15.7397,28.1561,NA,"1,604","8,023",NA,0.946893454,0.887137771,0.979508638,0.985884309,0.967965484,0.995230615
159,Zambia,Kambale,Zam_fac_14,Kafue,Lusaka,Rural Health Centre (RHC),Government,Rural,Extremely Poor,-15.9213,28.868,1997,292,"1,460",NA,0.926277399,0.850328624,0.971638799,0.979875088,0.954469383,0.99343437
160,Zambia,Mwembeshi,Zam_fac_15,Kafue,Lusaka,Rural Health Centre with HP (RHC+P),Government,Rural,Fair,-15.34,27.9259,1997,322,"1,657",NA,0.928197622,0.847790778,0.974227369,0.97703898,0.945138216,0.9925614
161,Zambia,Bulaya,Zam_fac_16,Lufwanyama,Copperbelt,Rural Health Centre (RHC),Government,Rural,Poor,-12.9543,28.1411,1975,175,871,NA,0.946978569,0.89947319,0.976006925,0.98942858,0.978457272,0.995837927
162,Zambia,Chikabuke,Zam_fac_17,Lufwanyama,Copperbelt,Rural Health Centre (RHC),Government,Rural,Poor,-13.1348,27.7187,1971,105,508,NA,0.90114224,0.766223967,0.966505706,0.9780038,0.943790257,0.994250238
163,Zambia,Fungulwa,Zam_fac_18,Lufwanyama,Copperbelt,Rural Health Centre (RHC),Government,Rural,Poor,-13.1758,27.4505,1966,219,"1,097",NA,0.865287125,0.687004983,0.960702896,0.969167471,0.917381167,0.992791593
164,Zambia,Mushingashi,Zam_fac_19,Lufwanyama,Copperbelt,Rural Health Centre (RHC),Government,Rural,Poor,-12.8531,27.0715,NA,257,"1,280",NA,0.844671845,0.671135008,0.947266757,0.967674911,0.922487199,0.99064517
165,Zambia,Chawama,Zam_fac_20,Lusaka,Lusaka,Urban Health Centre (UHC),Government,Rural,good,-15.5229,28.2833,1968,"3,654","19,168",NA,0.92250073,0.876325369,0.955785453,0.980023384,0.964338362,0.990818977
166,Zambia,Chelston,Zam_fac_21,Lusaka,Lusaka,Urban Health Centre (UHC),Government,Urban,good,-15.3667,28.3831,NA,"2,904","16,388",NA,0.911026478,0.851912796,0.952411473,0.975486219,0.953849614,0.988774121
167,Zambia,Chipata,Zam_fac_22,Lusaka,Lusaka,Urban Health Centre with HP (UHC+P),Government,Compound,good,-15.3576,28.2882,1982,"5,118","20,473",NA,0.901557386,0.845096886,0.939961791,0.973505199,0.954299569,0.986520946
168,Zambia,Kanyama,Zam_fac_23,Lusaka,Lusaka,Urban Health Centre (UHC),Government,Compound,good,-15.4279,28.2613,1977,"6,145","24,880",NA,0.90804708,0.852237582,0.946598291,0.974904895,0.956000686,0.987683773
169,Zambia,Chondwe,Zam_fac_24,Masaiti,Copperbelt,Rural Health Centre (RHC),Government,Rural,Fair,-13.1685,28.775,1984,204,"1,020",NA,0.88747412,0.78409338,0.95095551,0.977571726,0.954089642,0.991645336
170,Zambia,Kambowa,Zam_fac_25,Masaiti,Copperbelt,Rural Health Centre (RHC),Government,Rural,Poor,-13.1037,28.8007,1967,331,"1,342",NA,0.883978665,0.785349905,0.947228193,0.977797508,0.955487311,0.991415739
171,Zambia,Kashitu,Zam_fac_26,Masaiti,Copperbelt,Rural Health Centre (RHC),Government,Rural,Poor,-13.676,28.6586,1952,325,"1,626",NA,0.879855394,0.766634703,0.949797034,0.974503815,0.945147514,0.990906
172,Zambia,Masaiti Council,Zam_fac_27,Masaiti,Copperbelt,Rural Health Centre (RHC),Government,Rural,good,-13.2557,28.4034,1984,136,"1,360",NA,0.9283939,0.872543514,0.966685951,0.984518945,0.967728317,0.993948519
173,Zambia,Mutaba,Zam_fac_28,Masaiti,Copperbelt,Rural Health Centre (RHC),Government,Rural,Poor,-13.2912,28.823,1971,317,"1,584",NA,0.873272777,0.764057815,0.947731137,0.97611165,0.949851692,0.991547942
174,Zambia,Njelemani,Zam_fac_29,Masaiti,Copperbelt,Rural Health Centre (RHC),Government,Rural,Fair,-12.9718,28.7347,1954,284,"1,420",NA,0.925226986,0.870781302,0.963076532,0.98735261,0.9741292,0.995012701
175,Zambia,Chalata,Zam_fac_30,Mkushi,Central,Rural Health Centre (RHC),Government,Rural,good,-13.551,29.6832,1985,349,"1,626",NA,0.834157944,0.702029943,0.931208134,0.972477913,0.940252066,0.990971148
176,Zambia,Chibefwe,Zam_fac_31,Mkushi,Central,Rural Health Centre (RHC),Government,Rural,Fair,-13.6168,29.3952,NA,"1,300","4,763",NA,0.788111091,0.624135375,0.900140703,0.967380106,0.932028115,0.988250971
177,Zambia,Chikupili,Zam_fac_32,Mkushi,Central,Rural Health Centre (RHC),Government,Rural,Poor,-14.0773,29.2426,2002,278,"1,298",NA,0.785096347,0.589620292,0.918203115,0.958025157,0.91352284,0.986670792
178,Zambia,Fiwila,Zam_fac_33,Mkushi,Central,Rural Health Centre (RHC),NGO_Religious,Rural,good,-13.9709,29.606,1963,228,"1,064",NA,0.84720546,0.682483971,0.945908487,0.9708848,0.930946231,0.991712749
179,Zambia,Kampelembe,Zam_fac_34,Mkushi,Central,Rural Health Centre with HP (RHC+P),Government,Rural,Extremely Poor,NA,NA,2010,146,680,NA,NA,NA,NA,NA,NA,NA
180,Zambia,Masansa,Zam_fac_35,Mkushi,Central,Rural Health Centre (RHC),Government,Rural,Poor,-13.945,29.387,NA,550,"2,566",NA,0.807658434,0.635361135,0.927894294,0.962167144,0.917586505,0.987688661
181,Zambia,Nshinso,Zam_fac_36,Mkushi,Central,Rural Health Centre (RHC),Government,Rural,Poor,-13.7753,29.8194,2002,214,"1,000",NA,0.88572067,0.764309645,0.959760547,0.979908168,0.951607168,0.994094849
182,Zambia,Old Mkushi,Zam_fac_37,Mkushi,Central,Rural Health Centre (RHC),Government,Rural,Poor,-14.3675,29.3648,NA,272,123,NA,0.83549273,0.640818954,0.951788902,0.963922441,0.911634028,0.990804791
183,Zambia,Chipulukusu,Zam_fac_38,Ndola,Copperbelt,Urban Health Centre (UHC),Government,Compound,Extremely Poor,-12.9401,28.6547,1994,"1,623","8,117",NA,0.92627126,0.864684999,0.96534425,0.986044049,0.971713662,0.994617343
184,Zambia,Lubuto,Zam_fac_39,Ndola,Copperbelt,Urban Health Centre (UHC),Government,Urban,Poor,-13.0046,28.6095,NA,"1,313","6,819",NA,0.92956543,0.877521455,0.963745117,0.986322999,0.97320056,0.994239748
185,Zambia,Masala,Zam_fac_40,Ndola,Copperbelt,Urban Health Centre (UHC),Government,Compound,Poor,-12.9904,28.639,NA,688,"3,440",NA,0.925322235,0.8629933,0.963299632,0.985351086,0.969842851,0.993794203
186,Zambia,Ndeke,Zam_fac_41,Ndola,Copperbelt,Urban Health Centre (UHC),Government,Urban,Poor,-13.0019,28.6564,NA,640,"3,200",NA,0.926970303,0.872073948,0.961802423,0.985291421,0.970356166,0.993309975
187,Zambia,Nkwazi,Zam_fac_42,Ndola,Copperbelt,Urban Health Centre (UHC),Government,Compound,Poor,-12.9375,28.6389,1996,"1,032","5,162",NA,0.92627126,0.864684999,0.96534425,0.986044049,0.971713662,0.994617343
188,Zambia,Railway Surgery,Zam_fac_43,Ndola,Copperbelt,Urban Health Centre (UHC),Government,Urban,Fair,-12.969,28.6404,NA,"1,237","6,185",NA,0.925322235,0.8629933,0.963299632,0.985351086,0.969842851,0.993794203
189,Zambia,Chibale,Zam_fac_44,Serenje,Central,Rural Health Centre (RHC),Government,Rural,Poor,-13.5922,30.1476,NA,230,"1,928",NA,0.883462965,0.756801367,0.957867742,0.977235913,0.946827292,0.993265152
190,Zambia,Chitambo,Zam_fac_45,Serenje,Central,Hospital Affiliated Health Centre (HAHC) Rural,Government,Rural,Fair,-12.9016,30.6335,NA,703,"3,171",NA,0.850722969,0.716494322,0.934654176,0.970648646,0.935575902,0.989505649
191,Zambia,Kabamba,Zam_fac_46,Serenje,Central,Rural Health Centre (RHC),Government,Rural,good,-13.1802,30.3574,1999,413,"1,863",NA,0.907793164,0.830007255,0.957146943,0.982477605,0.961790502,0.994074881
192,Zambia,Malcolm Moffat,Zam_fac_47,Serenje,Central,Rural Health Centre (RHC),Government,Peri-Urban,Fair,-13.2205,30.24,1960,465,"2,101",NA,0.920465291,0.832212329,0.968786836,0.987664342,0.972024977,0.996238351
193,Zambia,Mapepala,Zam_fac_48,Serenje,Central,Rural Health Centre (RHC),Government,Rural,Poor,-12.6989,30.1371,NA,263,"1,189",NA,0.815139771,0.574303448,0.947038651,0.960198641,0.89859724,0.990060091
194,Zambia,Muchinka,Zam_fac_49,Serenje,Central,Rural Health Centre (RHC),Government,Rural,Poor,-12.9374,30.4401,1994,439,"1,543",NA,0.860783517,0.710107505,0.946683764,0.973549604,0.935088754,0.992582142
195,Zambia,Nchimishi,Zam_fac_50,Serenje,Central,Rural Health Centre (RHC),Government,Rural,Fair,-13.4783,29.9958,2004,360,"1,627",NA,0.864384472,0.730786443,0.954066217,0.975996673,0.944720268,0.99322474
196,Zambia,Serenje Hahc Boma,Zam_fac_51,Serenje,Central,Hospital Affiliated Health Centre (HAHC) Urban,Government,Peri-Urban,good,-13.2343,30.2352,NA,708,"3,171",NA,0.920465291,0.832212329,0.968786836,0.987664342,0.972024977,0.996238351
